0 SL-8 DEB
1 12151U 81006C   13284.18959229 -.00000015  00000-0  69783-4 0  2850
2 12151 065.8232 311.2032 0021605 236.5292 184.8391 13.73668587640753
0 SL-8 DEB
1 12151U 81006C   13286.54042788 -.00000029  00000-0  55391-4 0  2861
2 12151 065.8229 305.4061 0021487 235.7766 289.8091 13.73669058641074
0 SL-8 DEB
1 12151U 81006C   13288.77300972 -.00000047  00000-0  35545-4 0  2870
2 12151 065.8230 299.9003 0021348 235.2110 169.8634 13.73669447641389
0 SL-8 DEB
1 12151U 81006C   13291.18052131 -.00000048  00000-0  34517-4 0  2880
2 12151 065.8232 293.9633 0021177 234.5906 194.9553 13.73669619641716
0 SL-8 DEB
1 12151U 81006C   13293.51316098 -.00000018  00000-0  67008-4 0  2893
2 12151 065.8234 288.2109 0021076 233.7751 210.0242 13.73669620642033
0 SL-8 DEB
1 12151U 81006C   13296.20613969 -.00000008  00000-0  77319-4 0  2906
2 12151 065.8233 281.5700 0020925 232.9460 206.8830 13.73669967642406
